ALOS (DAICHI)           
1 28931U 06002A   26027.85909314  .00002586  00000+0  44275-3 0  9992
2 28931  98.1150 344.0423 0002158  77.7304 282.4144 14.69664864 67487
H-2A R/B                
1 28932U 06002B   26027.81838717  .00012032  00000+0  61468-3 0  9997
2 28932  98.2335 171.3749 0053670  21.3856 338.9600 15.15588235 88248
RESURS-DK 1             
1 29228U 06021A   26027.60125646  .00004529  00000+0  26566-3 0  9996
2 29228  69.9346 343.2865 0005126 214.5731 145.5102 15.12478088 81315
CZ-4B R/B               
1 29507U 06046C   26027.83643935  .00007243  00000+0  37022-3 0  9999
2 29507  97.5677  72.8517 0034851  51.0400 309.3929 15.16438960 53856
CZ-2C R/B               
1 31114U 07010B   26027.72377432  .00000209  00000+0  11467-3 0  9992
2 31114  98.3971 143.0609 0059860  54.0560 306.6150 14.20231410973907
COSMO-SKYMED 1          
1 31598U 07023A   26027.80699972  .00006622  00000+0  59249-3 0  9992
2 31598  97.8855 218.5229 0001508  87.4621 272.6772 14.96191544  8792
COSMOS 2428             
1 31792U 07029A   26027.75652545  .00000431  00000+0  25720-3 0  9992
2 31792  70.9401 289.2695 0006482 323.2325  36.8351 14.12922683958316
SL-16 R/B               
1 31793U 07029B   26027.62167003  .00000088  00000+0  70337-4 0  9992
2 31793  70.9732 258.7128 0001840 271.4848 117.7574 14.14822568959560
KORONAS-FOTON           
1 33504U 09003A   26027.77266891  .00014430  00000+0  33417-3 0  9992
2 33504  82.4324 318.3747 0009494 313.6260  46.4198 15.42263633939435
CZ-2C R/B               
1 37731U 11030B   26027.80063421  .00002196  00000+0  28283-3 0  9990
2 37731  97.8473 345.9084 0053954 122.5184 261.5051 14.81063541784049
H-2A R/B                
1 38341U 12025E   26027.83382641  .00005641  00000+0  51363-3 0  9997
2 38341  98.4652 351.6451 0046345  86.5986 274.0532 14.94797912742115
SHIJIAN-16 (SJ-16)      
1 39358U 13057A   26027.86712888  .00001540  00000+0  15361-3 0  9997
2 39358  74.9716 262.3645 0017430 213.0572 146.9528 14.92206431665416
