CCSDS_OMM_VERS = 2.0
CREATION_DATE  = 
ORIGINATOR     = 

OBJECT_NAME    = ALOS (DAICHI)
OBJECT_ID      = 2006-002A
CENTER_NAME    = EARTH
REF_FRAME      = TEME
TIME_SYSTEM    = UTC
MEAN_ELEMENT_THEORY = SGP/SGP4

EPOCH          = 2026-01-27T20:37:05.647296
MEAN_MOTION    = 14.69664864
ECCENTRICITY   = .0002158
INCLINATION    = 98.1150
RA_OF_ASC_NODE = 344.0423
ARG_OF_PERICENTER = 77.7304
MEAN_ANOMALY   = 282.4144

EPHEMERIS_TYPE = 0
CLASSIFICATION_TYPE = U
NORAD_CAT_ID   = 28931
ELEMENT_SET_NO = 999
REV_AT_EPOCH   = 6748
BSTAR          = .44275E-3
MEAN_MOTION_DOT = .2586E-4
MEAN_MOTION_DDOT = 0

CCSDS_OMM_VERS = 2.0
CREATION_DATE  = 
ORIGINATOR     = 

OBJECT_NAME    = H-2A R/B
OBJECT_ID      = 2006-002B
CENTER_NAME    = EARTH
REF_FRAME      = TEME
TIME_SYSTEM    = UTC
MEAN_ELEMENT_THEORY = SGP/SGP4

EPOCH          = 2026-01-27T19:38:28.651488
MEAN_MOTION    = 15.15588235
ECCENTRICITY   = .005367
INCLINATION    = 98.2335
RA_OF_ASC_NODE = 171.3749
ARG_OF_PERICENTER = 21.3856
MEAN_ANOMALY   = 338.9600

EPHEMERIS_TYPE = 0
CLASSIFICATION_TYPE = U
NORAD_CAT_ID   = 28932
ELEMENT_SET_NO = 999
REV_AT_EPOCH   = 8824
BSTAR          = .61468E-3
MEAN_MOTION_DOT = .12032E-3
MEAN_MOTION_DDOT = 0

CCSDS_OMM_VERS = 2.0
CREATION_DATE  = 
ORIGINATOR     = 

OBJECT_NAME    = RESURS-DK 1
OBJECT_ID      = 2006-021A
CENTER_NAME    = EARTH
REF_FRAME      = TEME
TIME_SYSTEM    = UTC
MEAN_ELEMENT_THEORY = SGP/SGP4

EPOCH          = 2026-01-27T14:25:48.558144
MEAN_MOTION    = 15.12478088
ECCENTRICITY   = .0005126
INCLINATION    = 69.9346
RA_OF_ASC_NODE = 343.2865
ARG_OF_PERICENTER = 214.5731
MEAN_ANOMALY   = 145.5102

EPHEMERIS_TYPE = 0
CLASSIFICATION_TYPE = U
NORAD_CAT_ID   = 29228
ELEMENT_SET_NO = 999
REV_AT_EPOCH   = 8131
BSTAR          = .26566E-3
MEAN_MOTION_DOT = .4529E-4
MEAN_MOTION_DDOT = 0

CCSDS_OMM_VERS = 2.0
CREATION_DATE  = 
ORIGINATOR     = 

OBJECT_NAME    = CZ-4B R/B
OBJECT_ID      = 2006-046C
CENTER_NAME    = EARTH
REF_FRAME      = TEME
TIME_SYSTEM    = UTC
MEAN_ELEMENT_THEORY = SGP/SGP4

EPOCH          = 2026-01-27T20:04:28.359840
MEAN_MOTION    = 15.16438960
ECCENTRICITY   = .0034851
INCLINATION    = 97.5677
RA_OF_ASC_NODE = 72.8517
ARG_OF_PERICENTER = 51.0400
MEAN_ANOMALY   = 309.3929

EPHEMERIS_TYPE = 0
CLASSIFICATION_TYPE = U
NORAD_CAT_ID   = 29507
ELEMENT_SET_NO = 999
REV_AT_EPOCH   = 5385
BSTAR          = .37022E-3
MEAN_MOTION_DOT = .7243E-4
MEAN_MOTION_DDOT = 0

CCSDS_OMM_VERS = 2.0
CREATION_DATE  = 
ORIGINATOR     = 

OBJECT_NAME    = CZ-2C R/B
OBJECT_ID      = 2007-010B
CENTER_NAME    = EARTH
REF_FRAME      = TEME
TIME_SYSTEM    = UTC
MEAN_ELEMENT_THEORY = SGP/SGP4

EPOCH          = 2026-01-27T17:22:14.101248
MEAN_MOTION    = 14.20231410
ECCENTRICITY   = .005986
INCLINATION    = 98.3971
RA_OF_ASC_NODE = 143.0609
ARG_OF_PERICENTER = 54.0560
MEAN_ANOMALY   = 306.6150

EPHEMERIS_TYPE = 0
CLASSIFICATION_TYPE = U
NORAD_CAT_ID   = 31114
ELEMENT_SET_NO = 999
REV_AT_EPOCH   = 97390
BSTAR          = .11467E-3
MEAN_MOTION_DOT = .209E-5
MEAN_MOTION_DDOT = 0

CCSDS_OMM_VERS = 2.0
CREATION_DATE  = 
ORIGINATOR     = 

OBJECT_NAME    = COSMO-SKYMED 1
OBJECT_ID      = 2007-023A
CENTER_NAME    = EARTH
REF_FRAME      = TEME
TIME_SYSTEM    = UTC
MEAN_ELEMENT_THEORY = SGP/SGP4

EPOCH          = 2026-01-27T19:22:04.775808
MEAN_MOTION    = 14.96191544
ECCENTRICITY   = .0001508
INCLINATION    = 97.8855
RA_OF_ASC_NODE = 218.5229
ARG_OF_PERICENTER = 87.4621
MEAN_ANOMALY   = 272.6772

EPHEMERIS_TYPE = 0
CLASSIFICATION_TYPE = U
NORAD_CAT_ID   = 31598
ELEMENT_SET_NO = 999
REV_AT_EPOCH   = 879
BSTAR          = .59249E-3
MEAN_MOTION_DOT = .6622E-4
MEAN_MOTION_DDOT = 0

CCSDS_OMM_VERS = 2.0
CREATION_DATE  = 
ORIGINATOR     = 

OBJECT_NAME    = COSMOS 2428
OBJECT_ID      = 2007-029A
CENTER_NAME    = EARTH
REF_FRAME      = TEME
TIME_SYSTEM    = UTC
MEAN_ELEMENT_THEORY = SGP/SGP4

EPOCH          = 2026-01-27T18:09:23.798880
MEAN_MOTION    = 14.12922683
ECCENTRICITY   = .0006482
INCLINATION    = 70.9401
RA_OF_ASC_NODE = 289.2695
ARG_OF_PERICENTER = 323.2325
MEAN_ANOMALY   = 36.8351

EPHEMERIS_TYPE = 0
CLASSIFICATION_TYPE = U
NORAD_CAT_ID   = 31792
ELEMENT_SET_NO = 999
REV_AT_EPOCH   = 95831
BSTAR          = .2572E-3
MEAN_MOTION_DOT = .431E-5
MEAN_MOTION_DDOT = 0

CCSDS_OMM_VERS = 2.0
CREATION_DATE  = 
ORIGINATOR     = 

OBJECT_NAME    = SL-16 R/B
OBJECT_ID      = 2007-029B
CENTER_NAME    = EARTH
REF_FRAME      = TEME
TIME_SYSTEM    = UTC
MEAN_ELEMENT_THEORY = SGP/SGP4

EPOCH          = 2026-01-27T14:55:12.290592
MEAN_MOTION    = 14.14822568
ECCENTRICITY   = .000184
INCLINATION    = 70.9732
RA_OF_ASC_NODE = 258.7128
ARG_OF_PERICENTER = 271.4848
MEAN_ANOMALY   = 117.7574

EPHEMERIS_TYPE = 0
CLASSIFICATION_TYPE = U
NORAD_CAT_ID   = 31793
ELEMENT_SET_NO = 999
REV_AT_EPOCH   = 95956
BSTAR          = .70337E-4
MEAN_MOTION_DOT = .88E-6
MEAN_MOTION_DDOT = 0

CCSDS_OMM_VERS = 2.0
CREATION_DATE  = 
ORIGINATOR     = 

OBJECT_NAME    = KORONAS-FOTON
OBJECT_ID      = 2009-003A
CENTER_NAME    = EARTH
REF_FRAME      = TEME
TIME_SYSTEM    = UTC
MEAN_ELEMENT_THEORY = SGP/SGP4

EPOCH          = 2026-01-27T18:32:38.593824
MEAN_MOTION    = 15.42263633
ECCENTRICITY   = .0009494
INCLINATION    = 82.4324
RA_OF_ASC_NODE = 318.3747
ARG_OF_PERICENTER = 313.6260
MEAN_ANOMALY   = 46.4198

EPHEMERIS_TYPE = 0
CLASSIFICATION_TYPE = U
NORAD_CAT_ID   = 33504
ELEMENT_SET_NO = 999
REV_AT_EPOCH   = 93943
BSTAR          = .33417E-3
MEAN_MOTION_DOT = .1443E-3
MEAN_MOTION_DDOT = 0

CCSDS_OMM_VERS = 2.0
CREATION_DATE  = 
ORIGINATOR     = 

OBJECT_NAME    = CZ-2C R/B
OBJECT_ID      = 2011-030B
CENTER_NAME    = EARTH
REF_FRAME      = TEME
TIME_SYSTEM    = UTC
MEAN_ELEMENT_THEORY = SGP/SGP4

EPOCH          = 2026-01-27T19:12:54.795744
MEAN_MOTION    = 14.81063541
ECCENTRICITY   = .0053954
INCLINATION    = 97.8473
RA_OF_ASC_NODE = 345.9084
ARG_OF_PERICENTER = 122.5184
MEAN_ANOMALY   = 261.5051

EPHEMERIS_TYPE = 0
CLASSIFICATION_TYPE = U
NORAD_CAT_ID   = 37731
ELEMENT_SET_NO = 999
REV_AT_EPOCH   = 78404
BSTAR          = .28283E-3
MEAN_MOTION_DOT = .2196E-4
MEAN_MOTION_DDOT = 0

CCSDS_OMM_VERS = 2.0
CREATION_DATE  = 
ORIGINATOR     = 

OBJECT_NAME    = H-2A R/B
OBJECT_ID      = 2012-025E
CENTER_NAME    = EARTH
REF_FRAME      = TEME
TIME_SYSTEM    = UTC
MEAN_ELEMENT_THEORY = SGP/SGP4

EPOCH          = 2026-01-27T20:00:42.601824
MEAN_MOTION    = 14.94797912
ECCENTRICITY   = .0046345
INCLINATION    = 98.4652
RA_OF_ASC_NODE = 351.6451
ARG_OF_PERICENTER = 86.5986
MEAN_ANOMALY   = 274.0532

EPHEMERIS_TYPE = 0
CLASSIFICATION_TYPE = U
NORAD_CAT_ID   = 38341
ELEMENT_SET_NO = 999
REV_AT_EPOCH   = 74211
BSTAR          = .51363E-3
MEAN_MOTION_DOT = .5641E-4
MEAN_MOTION_DDOT = 0

CCSDS_OMM_VERS = 2.0
CREATION_DATE  = 
ORIGINATOR     = 

OBJECT_NAME    = SHIJIAN-16 (SJ-16)
OBJECT_ID      = 2013-057A
CENTER_NAME    = EARTH
REF_FRAME      = TEME
TIME_SYSTEM    = UTC
MEAN_ELEMENT_THEORY = SGP/SGP4

EPOCH          = 2026-01-27T20:48:39.935232
MEAN_MOTION    = 14.92206431
ECCENTRICITY   = .001743
INCLINATION    = 74.9716
RA_OF_ASC_NODE = 262.3645
ARG_OF_PERICENTER = 213.0572
MEAN_ANOMALY   = 146.9528

EPHEMERIS_TYPE = 0
CLASSIFICATION_TYPE = U
NORAD_CAT_ID   = 39358
ELEMENT_SET_NO = 999
REV_AT_EPOCH   = 66541
BSTAR          = .15361E-3
MEAN_MOTION_DOT = .154E-4
MEAN_MOTION_DDOT = 0

